SES-2                   
1 37809U 11049A   26115.86780985 -.00000209  00000+0  00000+0 0  9998
2 37809   0.0584  75.7990 0002761 315.3351  48.1532  1.00272686 53430
QUETZSAT 1              
1 37826U 11054A   26115.86780985 -.00000255  00000+0  00000+0 0  9994
2 37826   0.0543  61.9459 0002510 344.7640  42.5768  1.00272230 49349
SES-4                   
1 38087U 12007A   26115.91927286 -.00000181  00000+0  00000+0 0  9994
2 38087   0.0220  44.4121 0002529   8.8324 109.6386  1.00273858 51701
SES-5                   
1 38652U 12036A   26115.92455955  .00000020  00000+0  00000+0 0  9995
2 38652   0.0594 300.5640 0001886  89.0990 162.0897  1.00272343 43934
ASTRA 2F                
1 38778U 12051A   26115.85791260  .00000136  00000+0  00000+0 0  9993
2 38778   0.0381 250.7966 0000576  20.5067 279.6141  1.00271286 40618
SES-6                   
1 39172U 13026A   26115.91554618 -.00000275  00000+0  00000+0 0  9991
2 39172   0.0245 342.6069 0002381  55.9604 104.4479  1.00271210 47204
O3B FM5                 
1 39188U 13031A   26115.86863597 -.00000027  00000+0  00000+0 0  9992
2 39188   0.1023   0.1408 0003141  23.8377 336.0345  5.00116472234424
O3B FM4                 
1 39189U 13031B   26115.78803782 -.00000027  00000+0  00000+0 0  9994
2 39189   0.0495 346.0223 0005145  48.4423 325.5669  5.00115143234421
O3B FM2                 
1 39190U 13031C   26115.85363188 -.00000027  00000+0  00000+0 0  9995
2 39190   0.0473 339.1574 0002788  53.2159 327.6420  5.00115975234499
O3B PFM                 
1 39191U 13031D   26113.46906767 -.00000026  00000+0  00000+0 0  9996
2 39191   0.0700 358.7224 0004841  42.5713 318.7416  5.00115912233936
ASTRA 2E                
1 39285U 13056A   26115.94683807  .00000137  00000+0  00000+0 0  9991
2 39285   0.0617   5.8531 0002317  29.7148 187.7669  1.00272180 45890
SES-8                   
1 39460U 13071A   26115.96518654 -.00000283  00000+0  00000+0 0  9995
2 39460   0.0169 259.6563 0002376 152.0460 244.7446  1.00272150 43907
ASTRA 5B                
1 39617U 14011B   26115.94697694  .00000123  00000+0  00000+0 0  9996
2 39617   0.0692 306.5121 0002682  64.7886 207.0682  1.00269219 44148
O3B FM3                 
1 40079U 14038A   26115.53461705 -.00000027  00000+0  00000+0 0  9990
2 40079   0.0515 355.3021 0001395 105.0225 259.6893  5.00115585210415
O3B FM7                 
1 40080U 14038B   26115.08093563 -.00000027  00000+0  00000+0 0  9995
2 40080   0.0544 347.6471 0004218  28.2337 344.1306  5.00115615215226
O3B FM6                 
1 40081U 14038C   26115.70760149 -.00000027  00000+0  00000+0 0  9996
2 40081   0.0521 352.0239 0002643  41.6225 326.3686  5.00115683215205
O3B FM8                 
1 40082U 14038D   26115.76088953 -.00000027  00000+0  00000+0 0  9999
2 40082   0.0525 351.0147 0002703  47.4699 321.5329  5.00115961215326
