[{"OBJECT_NAME":"SES-2","OBJECT_ID":"2011-049A","EPOCH":"2026-04-25T20:49:38.771040","MEAN_MOTION":1.00272686,"ECCENTRICITY":0.00027617,"INCLINATION":0.0584,"RA_OF_ASC_NODE":75.799,"ARG_OF_PERICENTER":315.3351,"MEAN_ANOMALY":48.1532,"EPHEMERIS_TYPE":0,"CLASSIFICATION_TYPE":"U","NORAD_CAT_ID":37809,"ELEMENT_SET_NO":999,"REV_AT_EPOCH":5343,"BSTAR":0,"MEAN_MOTION_DOT":-2.09e-6,"MEAN_MOTION_DDOT":0},{"OBJECT_NAME":"QUETZSAT 1","OBJECT_ID":"2011-054A","EPOCH":"2026-04-25T20:49:38.771040","MEAN_MOTION":1.0027223,"ECCENTRICITY":0.00025101,"INCLINATION":0.0543,"RA_OF_ASC_NODE":61.9459,"ARG_OF_PERICENTER":344.764,"MEAN_ANOMALY":42.5768,"EPHEMERIS_TYPE":0,"CLASSIFICATION_TYPE":"U","NORAD_CAT_ID":37826,"ELEMENT_SET_NO":999,"REV_AT_EPOCH":4934,"BSTAR":0,"MEAN_MOTION_DOT":-2.55e-6,"MEAN_MOTION_DDOT":0},{"OBJECT_NAME":"SES-4","OBJECT_ID":"2012-007A","EPOCH":"2026-04-25T22:03:45.175104","MEAN_MOTION":1.00273858,"ECCENTRICITY":0.00025295,"INCLINATION":0.022,"RA_OF_ASC_NODE":44.4121,"ARG_OF_PERICENTER":8.8324,"MEAN_ANOMALY":109.6386,"EPHEMERIS_TYPE":0,"CLASSIFICATION_TYPE":"U","NORAD_CAT_ID":38087,"ELEMENT_SET_NO":999,"REV_AT_EPOCH":5170,"BSTAR":0,"MEAN_MOTION_DOT":-1.81e-6,"MEAN_MOTION_DDOT":0},{"OBJECT_NAME":"SES-5","OBJECT_ID":"2012-036A","EPOCH":"2026-04-25T22:11:21.945120","MEAN_MOTION":1.00272343,"ECCENTRICITY":0.00018863,"INCLINATION":0.0594,"RA_OF_ASC_NODE":300.564,"ARG_OF_PERICENTER":89.099,"MEAN_ANOMALY":162.0897,"EPHEMERIS_TYPE":0,"CLASSIFICATION_TYPE":"U","NORAD_CAT_ID":38652,"ELEMENT_SET_NO":999,"REV_AT_EPOCH":4393,"BSTAR":0,"MEAN_MOTION_DOT":2.0e-7,"MEAN_MOTION_DDOT":0},{"OBJECT_NAME":"ASTRA 2F","OBJECT_ID":"2012-051A","EPOCH":"2026-04-25T20:35:23.648640","MEAN_MOTION":1.00271286,"ECCENTRICITY":5.762e-5,"INCLINATION":0.0381,"RA_OF_ASC_NODE":250.7966,"ARG_OF_PERICENTER":20.5067,"MEAN_ANOMALY":279.6141,"EPHEMERIS_TYPE":0,"CLASSIFICATION_TYPE":"U","NORAD_CAT_ID":38778,"ELEMENT_SET_NO":999,"REV_AT_EPOCH":4061,"BSTAR":0,"MEAN_MOTION_DOT":1.36e-6,"MEAN_MOTION_DDOT":0},{"OBJECT_NAME":"SES-6","OBJECT_ID":"2013-026A","EPOCH":"2026-04-25T21:58:23.189952","MEAN_MOTION":1.0027121,"ECCENTRICITY":0.00023812,"INCLINATION":0.0245,"RA_OF_ASC_NODE":342.6069,"ARG_OF_PERICENTER":55.9604,"MEAN_ANOMALY":104.4479,"EPHEMERIS_TYPE":0,"CLASSIFICATION_TYPE":"U","NORAD_CAT_ID":39172,"ELEMENT_SET_NO":999,"REV_AT_EPOCH":4720,"BSTAR":0,"MEAN_MOTION_DOT":-2.75e-6,"MEAN_MOTION_DDOT":0},{"OBJECT_NAME":"O3B FM5","OBJECT_ID":"2013-031A","EPOCH":"2026-04-25T20:50:50.147808","MEAN_MOTION":5.00116472,"ECCENTRICITY":0.00031418,"INCLINATION":0.1023,"RA_OF_ASC_NODE":0.1408,"ARG_OF_PERICENTER":23.8377,"MEAN_ANOMALY":336.0345,"EPHEMERIS_TYPE":0,"CLASSIFICATION_TYPE":"U","NORAD_CAT_ID":39188,"ELEMENT_SET_NO":999,"REV_AT_EPOCH":23442,"BSTAR":0,"MEAN_MOTION_DOT":-2.7e-7,"MEAN_MOTION_DDOT":0},{"OBJECT_NAME":"O3B FM4","OBJECT_ID":"2013-031B","EPOCH":"2026-04-25T18:54:46.467648","MEAN_MOTION":5.00115143,"ECCENTRICITY":0.0005145,"INCLINATION":0.0495,"RA_OF_ASC_NODE":346.0223,"ARG_OF_PERICENTER":48.4423,"MEAN_ANOMALY":325.5669,"EPHEMERIS_TYPE":0,"CLASSIFICATION_TYPE":"U","NORAD_CAT_ID":39189,"ELEMENT_SET_NO":999,"REV_AT_EPOCH":23442,"BSTAR":0,"MEAN_MOTION_DOT":-2.7e-7,"MEAN_MOTION_DDOT":0},{"OBJECT_NAME":"O3B FM2","OBJECT_ID":"2013-031C","EPOCH":"2026-04-25T20:29:13.794432","MEAN_MOTION":5.00115975,"ECCENTRICITY":0.00027884,"INCLINATION":0.0473,"RA_OF_ASC_NODE":339.1574,"ARG_OF_PERICENTER":53.2159,"MEAN_ANOMALY":327.642,"EPHEMERIS_TYPE":0,"CLASSIFICATION_TYPE":"U","NORAD_CAT_ID":39190,"ELEMENT_SET_NO":999,"REV_AT_EPOCH":23449,"BSTAR":0,"MEAN_MOTION_DOT":-2.7e-7,"MEAN_MOTION_DDOT":0},{"OBJECT_NAME":"O3B PFM","OBJECT_ID":"2013-031D","EPOCH":"2026-04-23T11:15:27.446688","MEAN_MOTION":5.00115912,"ECCENTRICITY":0.0004841,"INCLINATION":0.07,"RA_OF_ASC_NODE":358.7224,"ARG_OF_PERICENTER":42.5713,"MEAN_ANOMALY":318.7416,"EPHEMERIS_TYPE":0,"CLASSIFICATION_TYPE":"U","NORAD_CAT_ID":39191,"ELEMENT_SET_NO":999,"REV_AT_EPOCH":23393,"BSTAR":0,"MEAN_MOTION_DOT":-2.6e-7,"MEAN_MOTION_DDOT":0},{"OBJECT_NAME":"ASTRA 2E","OBJECT_ID":"2013-056A","EPOCH":"2026-04-25T22:43:26.809248","MEAN_MOTION":1.0027218,"ECCENTRICITY":0.00023176,"INCLINATION":0.0617,"RA_OF_ASC_NODE":5.8531,"ARG_OF_PERICENTER":29.7148,"MEAN_ANOMALY":187.7669,"EPHEMERIS_TYPE":0,"CLASSIFICATION_TYPE":"U","NORAD_CAT_ID":39285,"ELEMENT_SET_NO":999,"REV_AT_EPOCH":4589,"BSTAR":0,"MEAN_MOTION_DOT":1.37e-6,"MEAN_MOTION_DDOT":0},{"OBJECT_NAME":"SES-8","OBJECT_ID":"2013-071A","EPOCH":"2026-04-25T23:09:52.117056","MEAN_MOTION":1.0027215,"ECCENTRICITY":0.00023767,"INCLINATION":0.0169,"RA_OF_ASC_NODE":259.6563,"ARG_OF_PERICENTER":152.046,"MEAN_ANOMALY":244.7446,"EPHEMERIS_TYPE":0,"CLASSIFICATION_TYPE":"U","NORAD_CAT_ID":39460,"ELEMENT_SET_NO":999,"REV_AT_EPOCH":4390,"BSTAR":0,"MEAN_MOTION_DOT":-2.83e-6,"MEAN_MOTION_DDOT":0},{"OBJECT_NAME":"ASTRA 5B","OBJECT_ID":"2014-011B","EPOCH":"2026-04-25T22:43:38.807616","MEAN_MOTION":1.00269219,"ECCENTRICITY":0.00026829,"INCLINATION":0.0692,"RA_OF_ASC_NODE":306.5121,"ARG_OF_PERICENTER":64.7886,"MEAN_ANOMALY":207.0682,"EPHEMERIS_TYPE":0,"CLASSIFICATION_TYPE":"U","NORAD_CAT_ID":39617,"ELEMENT_SET_NO":999,"REV_AT_EPOCH":4414,"BSTAR":0,"MEAN_MOTION_DOT":1.23e-6,"MEAN_MOTION_DDOT":0},{"OBJECT_NAME":"O3B FM3","OBJECT_ID":"2014-038A","EPOCH":"2026-04-25T12:49:50.913120","MEAN_MOTION":5.00115585,"ECCENTRICITY":0.00013957,"INCLINATION":0.0515,"RA_OF_ASC_NODE":355.3021,"ARG_OF_PERICENTER":105.0225,"MEAN_ANOMALY":259.6893,"EPHEMERIS_TYPE":0,"CLASSIFICATION_TYPE":"U","NORAD_CAT_ID":40079,"ELEMENT_SET_NO":999,"REV_AT_EPOCH":21041,"BSTAR":0,"MEAN_MOTION_DOT":-2.7e-7,"MEAN_MOTION_DDOT":0},{"OBJECT_NAME":"O3B FM7","OBJECT_ID":"2014-038B","EPOCH":"2026-04-25T01:56:32.838432","MEAN_MOTION":5.00115615,"ECCENTRICITY":0.00042181,"INCLINATION":0.0544,"RA_OF_ASC_NODE":347.6471,"ARG_OF_PERICENTER":28.2337,"MEAN_ANOMALY":344.1306,"EPHEMERIS_TYPE":0,"CLASSIFICATION_TYPE":"U","NORAD_CAT_ID":40080,"ELEMENT_SET_NO":999,"REV_AT_EPOCH":21522,"BSTAR":0,"MEAN_MOTION_DOT":-2.7e-7,"MEAN_MOTION_DDOT":0},{"OBJECT_NAME":"O3B FM6","OBJECT_ID":"2014-038C","EPOCH":"2026-04-25T16:58:56.768736","MEAN_MOTION":5.00115683,"ECCENTRICITY":0.00026432,"INCLINATION":0.0521,"RA_OF_ASC_NODE":352.0239,"ARG_OF_PERICENTER":41.6225,"MEAN_ANOMALY":326.3686,"EPHEMERIS_TYPE":0,"CLASSIFICATION_TYPE":"U","NORAD_CAT_ID":40081,"ELEMENT_SET_NO":999,"REV_AT_EPOCH":21520,"BSTAR":0,"MEAN_MOTION_DOT":-2.7e-7,"MEAN_MOTION_DDOT":0},{"OBJECT_NAME":"O3B FM8","OBJECT_ID":"2014-038D","EPOCH":"2026-04-25T18:15:40.855392","MEAN_MOTION":5.00115961,"ECCENTRICITY":0.00027032,"INCLINATION":0.0525,"RA_OF_ASC_NODE":351.0147,"ARG_OF_PERICENTER":47.4699,"MEAN_ANOMALY":321.5329,"EPHEMERIS_TYPE":0,"CLASSIFICATION_TYPE":"U","NORAD_CAT_ID":40082,"ELEMENT_SET_NO":999,"REV_AT_EPOCH":21532,"BSTAR":0,"MEAN_MOTION_DOT":-2.7e-7,"MEAN_MOTION_DDOT":0}]
